NORAD_CAT_ID,OBJECT_NAME,OBJECT_TYPE,EPOCH,MEAN_MOTION,ECCENTRICITY,INCLINATION,RA_OF_ASC_NODE,ARG_OF_PERICENTER,MEAN_ANOMALY,BSTAR,MEAN_MOTION_DOT,MEAN_MOTION_DDOT,TLE_LINE0,TLE_LINE1,TLE_LINE2,SEMIMAJOR_AXIS,PERIOD,APOGEE,PERIGEE,DECAYED
51787.0,STARLINK-3619,PAYLOAD,2024-06-24 11:38:11,15.08841599,0.0001421,53.2177,266.7972,113.1623,246.9519,9.0106e-05,1.146e-05,0.0,0 STARLINK-3619,1 51787U 22017V   24176.48485373  .00001146  00000-0  90106-4 0  9994,2 51787  53.2177 266.7972 0001421 113.1623 246.9519 15.08841599128196,6917.876,95.437,540.724,538.757,0.0
51787.0,STARLINK-3619,PAYLOAD,2024-06-25 13:04:21,15.08838171,0.0001253,53.2172,262.0369,98.2717,261.8418,4.642e-05,4.51e-06,0.0,0 STARLINK-3619,1 51787U 22017V   24177.54469808  .00000451  00000-0  46420-4 0  9995,2 51787  53.2172 262.0369 0001253  98.2717 261.8418 15.08838171129995,6917.886,95.438,540.618,538.884,0.0
51787.0,STARLINK-3619,PAYLOAD,2024-06-26 11:19:45,15.08844741,0.000131,53.2167,257.8759,83.0725,277.0416,0.00010859,1.441e-05,0.0,0 STARLINK-3619,1 51787U 22017V   24178.47205305  .00001441  00000-0  10859-3 0  9994,2 51787  53.2167 257.8759 0001310  83.0725 277.0416 15.08844741128490,6917.866,95.437,540.637,538.825,0.0
51787.0,STARLINK-3619,PAYLOAD,2024-06-27 12:45:55,15.08841228,0.0001176,53.2158,253.1201,73.6359,286.4762,7.4178e-05,8.93e-06,0.0,0 STARLINK-3619,1 51787U 22017V   24179.53189431  .00000893  00000-0  74178-4 0  9998,2 51787  53.2158 253.1201 0001176  73.6359 286.4762 15.08841228130295,6917.877,95.437,540.555,538.928,0.0
51787.0,STARLINK-3619,PAYLOAD,2024-06-28 11:01:19,15.08839621,0.0001082,53.2163,248.9552,80.7037,279.4078,5.8353e-05,6.41e-06,0.0,0 STARLINK-3619,1 51787U 22017V   24180.45925486  .00000641  00000-0  58353-4 0  9997,2 51787  53.2163 248.9552 0001082  80.7037 279.4078 15.08839621128798,6917.882,95.438,540.495,538.998,0.0
51787.0,STARLINK-3619,PAYLOAD,2024-06-28 15:47:28,15.08857711,0.0001321,53.2166,248.0645,73.6359,286.4779,3.7718e-05,3.13e-06,0.0,0 STARLINK-3619,1 51787U 22017V   24180.65796483  .00000313  00000-0  37718-4 0  9990,2 51787  53.2166 248.0645 0001321  73.6359 286.4779 15.08857711130462,6917.826,95.436,540.605,538.777,0.0
51787.0,STARLINK-3619,PAYLOAD,2024-06-28 22:09:00,15.08851774,0.000146,53.2145,246.877,63.5867,296.5274,0.00010377,1.364e-05,0.0,0 STARLINK-3619,1 51787U 22017V   24180.92292658  .00001364  00000-0  10377-3 0  9993,2 51787  53.2145 246.8770 0001460  63.5867 296.5274 15.08851774128866,6917.844,95.437,540.719,538.699,0.0
51787.0,STARLINK-3619,PAYLOAD,2024-06-29 10:52:07,15.0882849,0.0001422,53.2157,244.4957,91.5007,268.6148,-7.4935e-06,-4.07e-06,0.0,0 STARLINK-3619,1 51787U 22017V   24181.45286269 -.00000407  00000-0 -74935-5 0  9994,2 51787  53.2157 244.4957 0001422  91.5007 268.6148 15.08828490130586,6917.916,95.438,540.764,538.797,0.0
51787.0,STARLINK-3619,PAYLOAD,2024-06-29 14:02:53,15.0882193,0.0001645,53.2166,243.8971,112.7315,247.3851,0.00033424,5.033e-05,0.0,0 STARLINK-3619,1 51787U 22017V   24181.58534689  .00005033  00000-0  33424-3 0  9994,2 51787  53.2166 243.8971 0001645 112.7315 247.3851 15.08821930128966,6917.936,95.439,540.939,538.663,0.0
51787.0,STARLINK-3619,PAYLOAD,2024-06-30 04:21:21,15.08837675,0.0001347,53.2149,241.2234,90.066,270.0487,2.1983e-05,6.2e-07,0.0,0 STARLINK-3619,1 51787U 22017V   24182.18150160  .00000062  00000-0  21983-4 0  9994,2 51787  53.2149 241.2234 0001347  90.0660 270.0487 15.08837675130695,6917.887,95.438,540.684,538.821,0.0
51787.0,STARLINK-3619,PAYLOAD,2024-06-30 13:53:40,15.08837772,0.0001317,53.2149,239.4395,87.6289,272.4854,3.5625e-05,2.79e-06,0.0,0 STARLINK-3619,1 51787U 22017V   24182.57894256  .00000279  00000-0  35625-4 0  9996,2 51787  53.2149 239.4395 0001317  87.6289 272.4854 15.08837772129115,6917.887,95.438,540.663,538.841,0.0
51787.0,STARLINK-3619,PAYLOAD,2024-07-01 10:33:42,15.08821716,0.0001166,53.2145,235.5747,96.3243,263.7882,0.00055763,8.594e-05,0.0,0 STARLINK-3619,1 51787U 22017V   24183.44007580  .00008594  00000-0  55763-3 0  9991,2 51787  53.2145 235.5747 0001166  96.3243 263.7882 15.08821716130889,6917.936,95.439,540.608,538.995,0.0
51787.0,STARLINK-3619,PAYLOAD,2024-07-01 20:06:00,15.08842968,0.0001288,53.215,233.79,88.2232,271.8907,0.00015643,2.203e-05,0.0,0 STARLINK-3619,1 51787U 22017V   24183.83750267  .00002203  00000-0  15643-3 0  9995,2 51787  53.2150 233.7900 0001288  88.2232 271.8907 15.08842968130946,6917.871,95.437,540.627,538.845,0.0
51787.0,STARLINK-3619,PAYLOAD,2024-07-02 13:35:14,15.0884314,0.0001623,53.2166,230.5209,100.741,259.3764,5.0012e-05,5.08e-06,0.0,0 STARLINK-3619,1 51787U 22017V   24184.56614484  .00000508  00000-0  50012-4 0  9992,2 51787  53.2166 230.5209 0001623 100.7410 259.3764 15.08843140129416,6917.871,95.437,540.859,538.613,0.0
51787.0,STARLINK-3619,PAYLOAD,2024-07-03 11:50:39,15.08833598,0.0001412,53.2161,226.3574,91.2112,268.9042,9.2073e-05,1.177e-05,0.0,0 STARLINK-3619,1 51787U 22017V   24185.49351180  .00001177  00000-0  92073-4 0  9992,2 51787  53.2161 226.3574 0001412  91.2112 268.9042 15.08833598131197,6917.9,95.438,540.742,538.788,0.0
51787.0,STARLINK-3619,PAYLOAD,2024-07-03 19:47:34,15.08840757,0.0001418,53.2162,224.8699,85.4223,274.6931,8.4723e-05,1.061e-05,0.0,0 STARLINK-3619,1 51787U 22017V   24185.82470778  .00001061  00000-0  84723-4 0  9999,2 51787  53.2162 224.8699 0001418  85.4223 274.6931 15.08840757129602,6917.878,95.438,540.724,538.762,0.0
51787.0,STARLINK-3619,PAYLOAD,2024-07-04 10:06:03,15.08839285,0.0001417,53.2158,222.1937,84.9395,275.1758,4.3961e-05,4.12e-06,0.0,0 STARLINK-3619,1 51787U 22017V   24186.42087002  .00000412  00000-0  43961-4 0  9998,2 51787  53.2158 222.1937 0001417  84.9395 275.1758 15.08839285129692,6917.883,95.438,540.728,538.767,0.0
51787.0,STARLINK-3619,PAYLOAD,2024-07-04 19:38:21,15.08844201,0.0001471,53.2164,220.4098,85.7097,274.4063,9.1755e-05,1.173e-05,0.0,0 STARLINK-3619,1 51787U 22017V   24186.81830542  .00001173  00000-0  91755-4 0  9995,2 51787  53.2164 220.4098 0001471  85.7097 274.4063 15.08844201131391,6917.868,95.437,540.75,538.715,0.0
51787.0,STARLINK-3619,PAYLOAD,2024-07-05 08:21:26,15.08842132,0.0001369,53.2156,218.0315,87.6516,272.4633,8.1024e-05,1.002e-05,0.0,0 STARLINK-3619,1 51787U 22017V   24187.34822656  .00001002  00000-0  81024-4 0  9990,2 51787  53.2156 218.0315 0001369  87.6516 272.4633 15.08842132129838,6917.874,95.437,540.686,538.792,0.0
51787.0,STARLINK-3619,PAYLOAD,2024-07-05 19:29:08,15.08847575,0.000139,53.2157,215.9495,88.1187,271.9964,8.9019e-05,1.129e-05,0.0,0 STARLINK-3619,1 51787U 22017V   24187.81190187  .00001129  00000-0  89019-4 0  9991,2 51787  53.2157 215.9495 0001390  88.1187 271.9964 15.08847575129903,6917.857,95.437,540.684,538.761,0.0
51787.0,STARLINK-3619,PAYLOAD,2024-07-06 01:50:41,15.08841531,0.0001433,53.2159,214.76,89.8453,270.2703,8.5572e-05,1.074e-05,0.0,0 STARLINK-3619,1 51787U 22017V   24188.07686517  .00001074  00000-0  85572-4 0  9996,2 51787  53.2159 214.7600 0001433  89.8453 270.2703 15.08841531131588,6917.876,95.437,540.732,538.749,0.0
51787.0,STARLINK-3619,PAYLOAD,2024-07-06 11:23:00,15.08840514,0.0001472,53.2164,212.9744,92.793,267.323,2.2361e-05,6.8e-07,0.0,0 STARLINK-3619,1 51787U 22017V   24188.47430648  .00000068  00000-0  22361-4 0  9991,2 51787  53.2164 212.9744 0001472  92.7930 267.3230 15.08840514130007,6917.879,95.438,540.762,538.726,0.0
51787.0,STARLINK-3619,PAYLOAD,2024-07-06 19:19:55,15.08841293,0.0001469,53.2164,211.4876,92.6913,267.4248,2.2568e-05,7.1e-07,0.0,0 STARLINK-3619,1 51787U 22017V   24188.80550566  .00000071  00000-0  22568-4 0  9993,2 51787  53.2164 211.4876 0001469  92.6913 267.4248 15.08841293130053,6917.876,95.437,540.758,538.725,0.0
51787.0,STARLINK-3619,PAYLOAD,2024-07-07 04:52:14,15.08840571,0.0001489,53.2164,209.7032,93.7322,266.384,2.0645e-05,4.1e-07,0.0,0 STARLINK-3619,1 51787U 22017V   24189.20294553  .00000041  00000-0  20645-4 0  9990,2 51787  53.2164 209.7032 0001489  93.7322 266.3840 15.08840571131757,6917.879,95.438,540.774,538.714,0.0
51787.0,STARLINK-3619,PAYLOAD,2024-07-07 08:03:00,15.08841424,0.000144,53.2163,209.1094,89.578,270.5377,-2.3421e-05,-6.61e-06,0.0,0 STARLINK-3619,1 51787U 22017V   24189.33542636 -.00000661  00000-0 -23421-4 0  9997,2 51787  53.2163 209.1094 0001440  89.5780 270.5377 15.08841424130137,6917.876,95.437,540.737,538.745,0.0
51787.0,STARLINK-3619,PAYLOAD,2024-07-08 07:53:47,15.08836684,0.0001416,53.216,204.6488,87.9379,272.1775,3.5981e-05,2.85e-06,0.0,0 STARLINK-3619,1 51787U 22017V   24190.32902715  .00000285  00000-0  35981-4 0  9990,2 51787  53.2160 204.6488 0001416  87.9379 272.1775 15.08836684131920,6917.891,95.438,540.735,538.776,0.0
51787.0,STARLINK-3619,PAYLOAD,2024-07-08 17:26:06,15.088392,0.0001404,53.2161,202.8647,87.2048,272.9105,3.553e-05,2.78e-06,0.0,0 STARLINK-3619,1 51787U 22017V   24190.72646617  .00000278  00000-0  35530-4 0  9992,2 51787  53.2161 202.8647 0001404  87.2048 272.9105 15.08839200130348,6917.883,95.438,540.719,538.777,0.0
51787.0,STARLINK-3619,PAYLOAD,2024-07-09 07:44:35,15.08834976,0.00014,53.216,200.1887,87.5772,272.538,2.1338e-05,5.2e-07,0.0,0 STARLINK-3619,1 51787U 22017V   24191.32263053  .00000052  00000-0  21338-4 0  9999,2 51787  53.2160 200.1887 0001400  87.5772 272.5380 15.08834976130433,6917.896,95.438,540.729,538.792,0.0
51787.0,STARLINK-3619,PAYLOAD,2024-07-10 04:24:36,15.08834018,0.000139,53.2162,196.3233,89.4577,270.6575,2.3894e-05,9.2e-07,0.0,0 STARLINK-3619,1 51787U 22017V   24192.18375342  .00000092  00000-0  23894-4 0  9992,2 51787  53.2162 196.3233 0001390  89.4577 270.6575 15.08834018132207,6917.899,95.438,540.725,538.802,0.0
51787.0,STARLINK-3619,PAYLOAD,2024-07-10 07:35:22,15.08833347,0.0001387,53.2162,195.7285,89.0483,271.0668,1.6338e-05,-2.8e-07,0.0,0 STARLINK-3619,1 51787U 22017V   24192.31623458 -.00000028  00000-0  16338-4 0  9996,2 51787  53.2162 195.7285 0001387  89.0483 271.0668 15.08833347130586,6917.901,95.438,540.725,538.806,0.0
